MAROC-TUBSAT            
1 27004U 01056D   25110.45189160  .00000002  00000+0  54940-4 0  9995
2 27004  99.7725 274.9977 0020336 144.1520 279.6580 13.70239579168299
MOST                    
1 27843U 03031D   25111.51629546  .00000210  00000+0  11645-3 0  9991
2 27843  98.7075 120.1212 0010524  35.6522 324.5356 14.21192561130819
MOZHAYETS 4 (RS-22)     
1 27939U 03042A   25111.52990185  .00002690  00000+0  43465-3 0  9999
2 27939  98.3243 279.8114 0012020 160.2503 240.7921 14.72189577153617
METEOSAT-9 (MSG-2)      
1 28912U 05049B   25111.43100306  .00000133  00000+0  00000+0 0  9992
2 28912   8.3984  58.1570 0001110   2.4868 349.9174  1.00272036 70840
MEASAT-3A               
1 35362U 09032A   25111.13549860 -.00000107  00000+0  00000+0 0  9996
2 35362   0.0160  85.4654 0003642 311.6445  21.1263  1.00269283 58008
MUOS-1                  
1 38093U 12009A   25111.18380259 -.00000121  00000+0  00000+0 0  9994
2 38093   4.6291  46.6283 0058596 359.7313 129.3296  1.00270898 48223
METEOSAT-10 (MSG-3)     
1 38552U 12035B   25110.74691109  .00000002  00000+0  00000+0 0  9990
2 38552   3.6730  62.0412 0000794 344.5923  71.8074  1.00265061 46625
MKA-PN 1                
1 38711U 12039E   25111.22047056  .00000357  00000+0  17171-3 0  9995
2 38711  98.9426 214.4971 0010548 308.6100  51.4134 14.25204960662739
METOP-B                 
1 38771U 12049A   25111.54764778  .00000250  00000+0  13390-3 0  9995
2 38771  98.5817 167.1325 0001907 115.1046 245.0330 14.21482023653352
MEXSAT 3                
1 39035U 12075B   25111.23586455 -.00000022  00000+0  00000+0 0  9996
2 39035   0.0156 194.5313 0002094 201.5044 143.6338  1.00272157 45249
MUOS-2                  
1 39206U 13036A   25110.77976265  .00000071  00000+0  00000+0 0  9997
2 39206   4.1760  43.7987 0049992 180.1714  88.7751  1.00270673 42955
MCUBED-2                
1 39472U 13072L   25110.93413834  .00025625  00000+0  85250-3 0  9994
2 39472 120.4948 264.1771 0123048 307.3636  51.6286 15.24099164 51600
METEOR-M 2              
1 40069U 14037A   25111.48213108  .00000313  00000+0  16289-3 0  9996
2 40069  98.4661  98.4323 0005773 169.9995 190.1299 14.21275672559416
MEASAT-3B               
1 40147U 14054B   25110.89628385 -.00000237  00000+0  00000+0 0  9999
2 40147   0.0660  59.2124 0003357 345.6510 218.5167  1.00270645 38933
MERIDIAN 7              
1 40296U 14069A   25111.46075035  .00000147  00000+0  00000+0 0  9991
2 40296  63.4930 259.2055 6853855 272.6746  17.0994  2.00601939 76766
MUOS-3                  
1 40374U 15002A   25110.74360964 -.00000121  00000+0  00000+0 0  9997
2 40374   3.7411  40.1785 0052175 181.6145 239.5409  1.00272053 37357
MMS 1                   
1 40482U 15011A   25111.58334491 -.00000739  00000+0  00000+0 0  9991
2 40482  62.7287 356.7863 8772296 158.1273  45.4221  0.28426537 16257
MMS 2                   
1 40483U 15011B   25111.58334491 -.00000739  00000+0  00000+0 0  9992
2 40483  62.6936 356.8041 8770875 158.1121  45.3895  0.28425711 16237
MMS 3                   
1 40484U 15011C   25111.58334491 -.00000739  00000+0  00000+0 0  9993
2 40484  62.7275 356.7898 8769986 158.1210  45.3939  0.28425766 16233
MMS 4                   
1 40485U 15011D   25111.58334491 -.00000739  00000+0  00000+0 0  9994
2 40485  62.6996 356.8010 8771589 158.1091  35.9498  0.28423387 16231
METEOSAT-11 (MSG-4)     
1 40732U 15034A   25111.17713223  .00000071  00000+0  00000+0 0  9991
2 40732   2.1474  72.2569 0000887 325.9121 244.6561  1.00280207 35784
MUOS-4                  
1 40887U 15044A   25111.14281095 -.00000087  00000+0  00000+0 0  9995
2 40887   3.5749  38.0018 0059273 359.9748 297.9126  1.00271965 35328
MORELOS 3               
1 40946U 15056A   25110.86719625 -.00000038  00000+0  00000+0 0  9993
2 40946   2.9794   2.2563 0003035 357.9084  48.1130  1.00272309 35055
M3MSAT                  
1 41605U 16040G   25111.52333472  .00052594  00000+0  67653-3 0  9990
2 41605  97.0871 137.4747 0006034  39.5964 320.5733 15.58894744491666
MUOS-5                  
1 41622U 16041A   25111.51613594 -.00000122  00000+0  00000+0 0  9995
2 41622   3.1545 297.1392 0192568 258.3516  95.1446  1.00272025 32844
MOHAMMED VI-A           
1 43005U 17070A   25111.51713959  .00001627  00000+0  23779-3 0  9993
2 43005  97.9560 184.8793 0001351  86.7410 273.3954 14.77051329401733
MIRATA                  
1 43015U 17073C   25110.64557595  .00068076  00000+0  13577-2 0  9997
2 43015  97.5460   3.4994 0090331 265.8580  93.2339 15.42236597403094
MAKERSAT 0              
1 43016U 17073D   25110.47189209  .00023547  00000+0  98117-3 0  9990
2 43016  97.5264 349.1770 0149825 314.1953  44.7047 15.13973344402142
METOP-C                 
1 43689U 18087A   25111.51297674  .00000251  00000+0  13445-3 0  9992
2 43689  98.6774 172.4769 0000181  13.3940 346.7242 14.21517262334929
MOHAMMED VI-B           
1 43717U 18095A   25111.48326971  .00001719  46530-9  24405-3 0  9998
2 43717  97.9554 184.8473 0001369  86.8189 273.3178 14.77050044332110
MINXSS-2                
1 43758U 18099A   25111.18056368  .00022148  00000+0  91689-3 0  9993
2 43758  97.5053 177.1079 0010814 334.4310  25.6391 15.23896376349442
MOVE-II                 
1 43780U 18099Y   25110.64569238  .00149969  00000+0  19724-2 0  9993
2 43780  97.4684 183.1729 0002776 251.5281 108.5673 15.57962225349986
METEOR-M2 2             
1 44387U 19038A   25111.53047162  .00000247  00000+0  12702-3 0  9992
2 44387  98.8715  88.7385 0001983 121.7743 238.3629 14.24190256301271
MOMENTUS-X1             
1 44408U 19038Y   25110.93313255  .00021978  00000+0  51784-3 0  9995
2 44408  97.7224 120.8282 0015443 107.8007 252.4926 15.41822975321051
MERIDIAN 8              
1 44453U 19046A   25110.02844182  .00000227  00000+0  00000+0 0  9997
2 44453  62.8039 102.9766 6905577 273.7501  16.3871  2.00605498 41853
MEV-1                   
1 44625U 19067B   25110.69350440  .00000053  00000+0  00000+0 0  9990
2 44625   0.1456  94.2286 0003604 321.7206 272.6003  0.98813345 20164
MERIDIAN 9              
1 45254U 20015A   25110.74979429 -.00000017  00000+0  00000+0 0  9995
2 45254  65.2043   5.2590 6951015 284.6383  12.7702  2.00614214 37812
M2 PATHFINDER           
1 45727U 20037E   25110.90924561  .00005864  00000+0  45357-3 0  9991
2 45727  97.8173 293.1986 0013190 141.1010 219.1166 15.01811341262058
MEV-2                   
1 46113U 20056B   25110.89003127 -.00000006  00000+0  00000+0 0  9992
2 46113   0.0384  61.2076 0000984 318.8869 148.5725  1.00271345 17966
MEZNSAT                 
1 46489U 20068D   25111.48917421  .00783587  26842-3  20053-2 0  9998
2 46489  97.8181 107.6517 0006463 166.0942 194.0512 15.95312226252413
MANDRAKE 2 ABLE         
1 48907U 21059AE  25110.39889806  .00023787  00000+0  63500-3 0  9998
2 48907  97.6836 269.4293 0007118  93.9167 266.2891 15.38094674211810
MANDRAKE 2 BAKER        
1 48908U 21059AF  25110.91449105  .00021247  00000+0  53976-3 0  9996
2 48908  97.6845 270.9740 0005841  80.7936 279.3970 15.39651717211949
MONOLITH                
1 49052U 21068A   25110.79970343  .00009209  00000+0  67248-3 0  9997
2 49052  37.0218 266.1248 0004150 341.9924  18.0673 15.03217462203566
MDASAT-1A               
1 50995U 22002M   25111.18060756  .00463889  85231-4  14114-2 0  9991
2 50995  97.3288 191.2568 0004798 246.5267 113.5503 15.91995788182190
MDASAT-1C               
1 51038U 22002BG  25111.19379424  .00615795  16520-3  14000-2 0  9999
2 51038  97.3377 192.8642 0006002 253.9548 106.1068 15.97481978182205
MERIDIAN 10             
1 52145U 22030A   25110.25403648  .00000243  00000+0  00000+0 0  9992
2 52145  62.6543 185.3091 6750866 273.4802  17.7196  2.00602362 22541
MIMAN                   
1 52900U 22065G   25111.37268023  .00001419  00000+0  29829-3 0  9999
2 52900  98.1650 252.7476 0006414 262.9276  97.1195 14.61065103148821
MEASAT 3D               
1 52904U 22067B   25110.89628385 -.00000238  00000+0  00000+0 0  9997
2 52904   0.0361 351.7107 0002308  15.7548 255.9241  1.00273148 10419
MATS                    
1 54227U 22147A   25110.58808699  .00005605  00000+0  43440-3 0  9991
2 54227  97.6767 110.4920 0015569 177.2804 182.8508 15.01715543134266
METEOSAT-12 (MTG-I1)    
1 54743U 22170C   25111.46086427 -.00000004  00000+0  00000+0 0  9995
2 54743   0.6291  33.4334 0001130 327.9231  14.0419  1.00268526  8743
MENUT                   
1 55010U 23001B   25111.46288182  .00012133  00000+0  43232-3 0  9992
2 55010  97.3816 172.2036 0008108 178.1051 182.0221 15.29040198127485
METEOR-M2 3             
1 57166U 23091A   25111.51752093  .00000052  00000+0  41725-4 0  9991
2 57166  98.6657 168.7136 0003175 330.3244  29.7754 14.23993505 94508
MONITOR-3 (RS58S)       
1 57180U 23091Q   25111.52695305  .00014237  00000+0  69925-3 0  9991
2 57180  97.5652 168.5154 0016065 133.1516 227.1063 15.18062937100122
MONITOR-4 (RS57S)       
1 57182U 23091S   25111.52484670  .00014552  00000+0  71369-3 0  9999
2 57182  97.5647 168.4712 0016077 133.7537 226.5031 15.18106929100127
MONITOR-2 (RS39S)       
1 57184U 23091U   25111.50563271  .00009346  00000+0  52006-3 0  9996
2 57184  97.5656 167.4785 0013943 130.9552 229.2889 15.13791100100052
MACSAT (FINCH 1)        
1 58024U 23155J   25111.15807174  .00016587  00000+0  88506-3 0  9994
2 58024  97.6113 186.4296 0004134 101.6443 258.5253 15.15217418 84293
MANTIS                  
1 58257U 23174B   25111.47738382  .00048692  00000+0  97199-3 0  9992
2 58257  97.4152 194.1796 0007387 218.0136 142.0592 15.46662417 80968
MALLIGYONG-1            
1 58400U 23179A   25111.52078834  .00006640  00000+0  29274-3 0  9998
2 58400  97.3631 358.5713 0004414 169.7451 190.3876 15.22114838 78617
MISRSAT-2               
1 58497U 23187B   25111.47843024  .00002875  00000+0  37157-3 0  9993
2 58497  97.9559 191.3771 0012739  81.5414 278.7242 14.81660128 74564
MDQUBESAT-2             
1 58665U 23185P   25111.43345417  .00034181  00000+0  13721-2 0  9992
2 58665  97.5827 184.2242 0010349 313.5735  46.4642 15.24845066 72799
MERAH PUTIH 2           
1 58995U 24035A   25110.91202652 -.00000354  00000+0  00000+0 0  9997
2 58995   0.0109 208.7930 0001625 195.1265 246.6123  1.00271888  4351
METEOR-M2 4             
1 59051U 24039A   25111.54319720  .00000093  00000+0  61364-4 0  9994
2 59051  98.6452  72.6034 0006298 318.8271  41.2431 14.22359075 59325
MARAFON-D GVM           
1 59072U 24039V   25110.92818537  .00000416  00000+0  11314-3 0  9996
2 59072  88.9942 334.4902 0015515 333.5053  26.5357 14.45725209 60170
MUSAT2                  
1 59099U 24043B   25111.30814715  .00011020  00000+0  85989-3 0  9999
2 59099  97.8007 238.9629 0009220 329.4175  30.6510 15.01295842 61647
METHANESAT              
1 59101U 24043D   25110.29709383  .00005737  00000+0  52526-3 0  9993
2 59101  97.7921 236.6889 0011839 345.6998  14.3886 14.95293547 61401
MESON-1                 
1 59131U 24043AK  25110.82124955  .00008442  00000+0  34105-3 0  9990
2 59131  97.5087 239.2582 0010096 291.5729  68.4432 15.24968763 62588
MOLA                    
1 59289U 24053B   25110.89252748  .00021763  00000+0  65435-3 0  9995
2 59289  49.9868 285.0554 0001690  21.4710 338.6320 15.34273962 56210
MESAT1                  
1 60209U 24125G   25111.49355781  .00028114  00000+0  84767-3 0  9993
2 60209  97.2864 323.7087 0018259 316.8014  43.1795 15.34103942 44428
MORDOVIA-IOT (RS50S)    
1 61765U 24199AG  25111.52317374  .00048851  00000+0  12926-2 0  9999
2 61765  97.3622 341.3060 0010172   1.9715 358.1568 15.38182017 69486
M-SEL/CORTEZ            
1 63231U 25052X   25110.66365903  .00011764  00000+0  58733-3 0  9993
2 63231  97.4378   5.3327 0005894 172.0375 188.0954 15.17631492  5667
